ONEWEB-0112             
1 48051U 21025K   26064.20345792  .00000222  00000+0  57250-3 0  9995
2 48051  87.9050 340.8830 0001930  84.0198 276.1151 13.13470386239944
ONEWEB-0156             
1 48052U 21025L   26064.21192127  .00000378  00000+0  10006-2 0  9998
2 48052  87.9048 340.8922 0001814  76.8099 283.3232 13.13469408239925
ONEWEB-0161             
1 48053U 21025M   26064.18652705 -.00000156  00000+0 -46185-3 0  9992
2 48053  87.9039 340.9071 0001907  77.0504 283.0838 13.13469786239859
ONEWEB-0158             
1 48054U 21025N   26064.22208069  .00000441  00000+0  11738-2 0  9998
2 48054  87.9049 340.8901 0001528  87.8597 272.2707 13.13469653239984
ONEWEB-0157             
1 48055U 21025P   26064.24746690 -.00000216  00000+0 -62602-3 0  9997
2 48055  87.9048 340.8899 0002164  77.5702 282.5670 13.13469482239928
ONEWEB-0162             
1 48056U 21025Q   26064.22363118  .00000338  00000+0  88965-3 0  9999
2 48056  87.9048 340.8988 0001750  73.7346 286.3976 13.13471084239898
ONEWEB-0155             
1 48057U 21025R   26064.23054200  .00000227  00000+0  58585-3 0  9992
2 48057  87.9040 340.8968 0001889  80.1885 279.9457 13.13468888240030
ONEWEB-0149             
1 48058U 21025S   26064.25254313 -.00000278  00000+0 -79598-3 0  9997
2 48058  87.9046 340.8895 0001723  72.3837 287.7481 13.13469566239848
ONEWEB-0148             
1 48059U 21025T   26064.21530864  .00000370  00000+0  97878-3 0  9994
2 48059  87.9034 340.9120 0001899  61.1089 299.0231 13.13470674239961
ONEWEB-0160             
1 48060U 21025U   26064.23223043  .00000133  00000+0  32927-3 0  9997
2 48060  87.9037 340.9046 0001022  93.8054 266.3192 13.13469222239910
ONEWEB-0163             
1 48061U 21025V   26064.21700276  .00000442  00000+0  11745-2 0  9991
2 48061  87.9032 340.9007 0001979  80.1935 279.9418 13.13469712240031
ONEWEB-0159             
1 48062U 21025W   26064.20853159  .00000407  00000+0  10786-2 0  9995
2 48062  87.9050 340.8872 0001943  73.7536 286.3806 13.13469297239957
ONEWEB-0164             
1 48063U 21025X   26064.18990874  .00000005  00000+0 -21908-4 0  9994
2 48063  87.9050 340.8976 0001710  80.5186 279.6137 13.13469916239930
ONEWEB-0167             
1 48064U 21025Y   26064.21786491  .00000426  00000+0  11319-2 0  9996
2 48064  87.9040 340.9118 0002262  92.6585 267.4804 13.13470634239923
ONEWEB-0166             
1 48065U 21025Z   26064.24069408 -.00000052  00000+0 -17620-3 0  9991
2 48065  87.9048 340.8697 0001832  72.8542 287.2788 13.13469330240001
ONEWEB-0151             
1 48066U 21025AA  26064.24239136 -.00000170  00000+0 -49976-3 0  9999
2 48066  87.9041 340.8951 0001783  82.4716 277.6616 13.13468797239943
