[{"OBJECT_NAME":"ONEWEB-0112","OBJECT_ID":"2021-025K","EPOCH":"2026-03-05T04:52:58.764288","MEAN_MOTION":13.13470386,"ECCENTRICITY":0.00019301,"INCLINATION":87.905,"RA_OF_ASC_NODE":340.883,"ARG_OF_PERICENTER":84.0198,"MEAN_ANOMALY":276.1151,"EPHEMERIS_TYPE":0,"CLASSIFICATION_TYPE":"U","NORAD_CAT_ID":48051,"ELEMENT_SET_NO":999,"REV_AT_EPOCH":23994,"BSTAR":0.00057249777,"MEAN_MOTION_DOT":2.22e-6,"MEAN_MOTION_DDOT":0},{"OBJECT_NAME":"ONEWEB-0156","OBJECT_ID":"2021-025L","EPOCH":"2026-03-05T05:05:09.997728","MEAN_MOTION":13.13469408,"ECCENTRICITY":0.00018145,"INCLINATION":87.9048,"RA_OF_ASC_NODE":340.8922,"ARG_OF_PERICENTER":76.8099,"MEAN_ANOMALY":283.3232,"EPHEMERIS_TYPE":0,"CLASSIFICATION_TYPE":"U","NORAD_CAT_ID":48052,"ELEMENT_SET_NO":999,"REV_AT_EPOCH":23992,"BSTAR":0.0010005696,"MEAN_MOTION_DOT":3.78e-6,"MEAN_MOTION_DDOT":0},{"OBJECT_NAME":"ONEWEB-0161","OBJECT_ID":"2021-025M","EPOCH":"2026-03-05T04:28:35.937120","MEAN_MOTION":13.13469786,"ECCENTRICITY":0.00019078,"INCLINATION":87.9039,"RA_OF_ASC_NODE":340.9071,"ARG_OF_PERICENTER":77.0504,"MEAN_ANOMALY":283.0838,"EPHEMERIS_TYPE":0,"CLASSIFICATION_TYPE":"U","NORAD_CAT_ID":48053,"ELEMENT_SET_NO":999,"REV_AT_EPOCH":23985,"BSTAR":-0.00046185303,"MEAN_MOTION_DOT":-1.56e-6,"MEAN_MOTION_DDOT":0},{"OBJECT_NAME":"ONEWEB-0158","OBJECT_ID":"2021-025N","EPOCH":"2026-03-05T05:19:47.771616","MEAN_MOTION":13.13469653,"ECCENTRICITY":0.00015286,"INCLINATION":87.9049,"RA_OF_ASC_NODE":340.8901,"ARG_OF_PERICENTER":87.8597,"MEAN_ANOMALY":272.2707,"EPHEMERIS_TYPE":0,"CLASSIFICATION_TYPE":"U","NORAD_CAT_ID":48054,"ELEMENT_SET_NO":999,"REV_AT_EPOCH":23998,"BSTAR":0.0011738122,"MEAN_MOTION_DOT":4.41e-6,"MEAN_MOTION_DDOT":0},{"OBJECT_NAME":"ONEWEB-0157","OBJECT_ID":"2021-025P","EPOCH":"2026-03-05T05:56:21.140160","MEAN_MOTION":13.13469482,"ECCENTRICITY":0.00021643,"INCLINATION":87.9048,"RA_OF_ASC_NODE":340.8899,"ARG_OF_PERICENTER":77.5702,"MEAN_ANOMALY":282.567,"EPHEMERIS_TYPE":0,"CLASSIFICATION_TYPE":"U","NORAD_CAT_ID":48055,"ELEMENT_SET_NO":999,"REV_AT_EPOCH":23992,"BSTAR":-0.00062601811,"MEAN_MOTION_DOT":-2.16e-6,"MEAN_MOTION_DDOT":0},{"OBJECT_NAME":"ONEWEB-0162","OBJECT_ID":"2021-025Q","EPOCH":"2026-03-05T05:22:01.733952","MEAN_MOTION":13.13471084,"ECCENTRICITY":0.000175,"INCLINATION":87.9048,"RA_OF_ASC_NODE":340.8988,"ARG_OF_PERICENTER":73.7346,"MEAN_ANOMALY":286.3976,"EPHEMERIS_TYPE":0,"CLASSIFICATION_TYPE":"U","NORAD_CAT_ID":48056,"ELEMENT_SET_NO":999,"REV_AT_EPOCH":23989,"BSTAR":0.00088965002,"MEAN_MOTION_DOT":3.38e-6,"MEAN_MOTION_DDOT":0},{"OBJECT_NAME":"ONEWEB-0155","OBJECT_ID":"2021-025R","EPOCH":"2026-03-05T05:31:58.828800","MEAN_MOTION":13.13468888,"ECCENTRICITY":0.00018899,"INCLINATION":87.904,"RA_OF_ASC_NODE":340.8968,"ARG_OF_PERICENTER":80.1885,"MEAN_ANOMALY":279.9457,"EPHEMERIS_TYPE":0,"CLASSIFICATION_TYPE":"U","NORAD_CAT_ID":48057,"ELEMENT_SET_NO":999,"REV_AT_EPOCH":24003,"BSTAR":0.00058584744,"MEAN_MOTION_DOT":2.27e-6,"MEAN_MOTION_DDOT":0},{"OBJECT_NAME":"ONEWEB-0149","OBJECT_ID":"2021-025S","EPOCH":"2026-03-05T06:03:39.726432","MEAN_MOTION":13.13469566,"ECCENTRICITY":0.00017239,"INCLINATION":87.9046,"RA_OF_ASC_NODE":340.8895,"ARG_OF_PERICENTER":72.3837,"MEAN_ANOMALY":287.7481,"EPHEMERIS_TYPE":0,"CLASSIFICATION_TYPE":"U","NORAD_CAT_ID":48058,"ELEMENT_SET_NO":999,"REV_AT_EPOCH":23984,"BSTAR":-0.00079598409,"MEAN_MOTION_DOT":-2.78e-6,"MEAN_MOTION_DDOT":0},{"OBJECT_NAME":"ONEWEB-0148","OBJECT_ID":"2021-025T","EPOCH":"2026-03-05T05:10:02.666496","MEAN_MOTION":13.13470674,"ECCENTRICITY":0.00018993,"INCLINATION":87.9034,"RA_OF_ASC_NODE":340.912,"ARG_OF_PERICENTER":61.1089,"MEAN_ANOMALY":299.0231,"EPHEMERIS_TYPE":0,"CLASSIFICATION_TYPE":"U","NORAD_CAT_ID":48059,"ELEMENT_SET_NO":999,"REV_AT_EPOCH":23996,"BSTAR":0.00097878366,"MEAN_MOTION_DOT":3.7e-6,"MEAN_MOTION_DDOT":0},{"OBJECT_NAME":"ONEWEB-0160","OBJECT_ID":"2021-025U","EPOCH":"2026-03-05T05:34:24.709152","MEAN_MOTION":13.13469222,"ECCENTRICITY":0.00010229,"INCLINATION":87.9037,"RA_OF_ASC_NODE":340.9046,"ARG_OF_PERICENTER":93.8054,"MEAN_ANOMALY":266.3192,"EPHEMERIS_TYPE":0,"CLASSIFICATION_TYPE":"U","NORAD_CAT_ID":48060,"ELEMENT_SET_NO":999,"REV_AT_EPOCH":23991,"BSTAR":0.00032927477,"MEAN_MOTION_DOT":1.33e-6,"MEAN_MOTION_DDOT":0},{"OBJECT_NAME":"ONEWEB-0163","OBJECT_ID":"2021-025V","EPOCH":"2026-03-05T05:12:29.038464","MEAN_MOTION":13.13469712,"ECCENTRICITY":0.00019797,"INCLINATION":87.9032,"RA_OF_ASC_NODE":340.9007,"ARG_OF_PERICENTER":80.1935,"MEAN_ANOMALY":279.9418,"EPHEMERIS_TYPE":0,"CLASSIFICATION_TYPE":"U","NORAD_CAT_ID":48061,"ELEMENT_SET_NO":999,"REV_AT_EPOCH":24003,"BSTAR":0.0011745064,"MEAN_MOTION_DOT":4.42e-6,"MEAN_MOTION_DDOT":0},{"OBJECT_NAME":"ONEWEB-0159","OBJECT_ID":"2021-025W","EPOCH":"2026-03-05T05:00:17.129376","MEAN_MOTION":13.13469297,"ECCENTRICITY":0.00019434,"INCLINATION":87.905,"RA_OF_ASC_NODE":340.8872,"ARG_OF_PERICENTER":73.7536,"MEAN_ANOMALY":286.3806,"EPHEMERIS_TYPE":0,"CLASSIFICATION_TYPE":"U","NORAD_CAT_ID":48062,"ELEMENT_SET_NO":999,"REV_AT_EPOCH":23995,"BSTAR":0.0010786082,"MEAN_MOTION_DOT":4.07e-6,"MEAN_MOTION_DDOT":0},{"OBJECT_NAME":"ONEWEB-0164","OBJECT_ID":"2021-025X","EPOCH":"2026-03-05T04:33:28.115136","MEAN_MOTION":13.13469916,"ECCENTRICITY":0.00017105,"INCLINATION":87.905,"RA_OF_ASC_NODE":340.8976,"ARG_OF_PERICENTER":80.5186,"MEAN_ANOMALY":279.6137,"EPHEMERIS_TYPE":0,"CLASSIFICATION_TYPE":"U","NORAD_CAT_ID":48063,"ELEMENT_SET_NO":999,"REV_AT_EPOCH":23993,"BSTAR":-2.1907513e-5,"MEAN_MOTION_DOT":5.0e-8,"MEAN_MOTION_DDOT":0},{"OBJECT_NAME":"ONEWEB-0167","OBJECT_ID":"2021-025Y","EPOCH":"2026-03-05T05:13:43.528224","MEAN_MOTION":13.13470634,"ECCENTRICITY":0.00022629,"INCLINATION":87.904,"RA_OF_ASC_NODE":340.9118,"ARG_OF_PERICENTER":92.6585,"MEAN_ANOMALY":267.4804,"EPHEMERIS_TYPE":0,"CLASSIFICATION_TYPE":"U","NORAD_CAT_ID":48064,"ELEMENT_SET_NO":999,"REV_AT_EPOCH":23992,"BSTAR":0.0011318694,"MEAN_MOTION_DOT":4.26e-6,"MEAN_MOTION_DDOT":0},{"OBJECT_NAME":"ONEWEB-0166","OBJECT_ID":"2021-025Z","EPOCH":"2026-03-05T05:46:35.968512","MEAN_MOTION":13.1346933,"ECCENTRICITY":0.00018326,"INCLINATION":87.9048,"RA_OF_ASC_NODE":340.8697,"ARG_OF_PERICENTER":72.8542,"MEAN_ANOMALY":287.2788,"EPHEMERIS_TYPE":0,"CLASSIFICATION_TYPE":"U","NORAD_CAT_ID":48065,"ELEMENT_SET_NO":999,"REV_AT_EPOCH":24000,"BSTAR":-0.00017619678,"MEAN_MOTION_DOT":-5.2e-7,"MEAN_MOTION_DDOT":0},{"OBJECT_NAME":"ONEWEB-0151","OBJECT_ID":"2021-025AA","EPOCH":"2026-03-05T05:49:02.613504","MEAN_MOTION":13.13468797,"ECCENTRICITY":0.00017832,"INCLINATION":87.9041,"RA_OF_ASC_NODE":340.8951,"ARG_OF_PERICENTER":82.4716,"MEAN_ANOMALY":277.6616,"EPHEMERIS_TYPE":0,"CLASSIFICATION_TYPE":"U","NORAD_CAT_ID":48066,"ELEMENT_SET_NO":999,"REV_AT_EPOCH":23994,"BSTAR":-0.00049976378,"MEAN_MOTION_DOT":-1.7e-6,"MEAN_MOTION_DDOT":0}]
